ORBCOMM FM37            
1 33064U 08031E   24175.60934826  .00001489  00000+0  23984-3 0  9995
2 33064  48.4406 244.5617 0006717 281.4288 231.4110 14.76697575860998
ORBCOMM FM40            
1 33065U 08031F   24175.63510854  .00001928  00000+0  29251-3 0  9991
2 33065  48.4414 233.3775 0008098 290.4137 234.3283 14.78078546861049
ORBCOMM FM107           
1 40087U 14040B   24175.64371540  .00001029  00000+0  26494-3 0  9996
2 40087  47.0059 268.9254 0000340  30.6442 329.4463 14.56771320528831
ORBCOMM FM106           
1 40088U 14040C   24175.86626949  .00001245  00000+0  25104-3 0  9994
2 40088  47.0607 117.7199 0017738 205.1530 154.8497 14.67209612530816
ORBCOMM FM104           
1 40090U 14040E   24175.72904058  .00000782  00000+0  21727-3 0  9994
2 40090  47.0063 297.9350 0016665   4.6955 355.4083 14.55246141528380
